ORBCOMM FM33            
1 25983U 99065D   25020.91560776  .00004122  00000+0  13596-2 0  9990
2 25983  45.0296 338.8242 0008975  29.0755 331.0592 14.39297933314845
ORBCOMM FM36            
1 25984U 99065E   25020.54708853  .00003131  00000+0  10845-2 0  9993
2 25984  45.0392  70.2265 0005584 273.4895  86.5315 14.37407165313176
ORBCOMM FM35            
1 25985U 99065F   25020.49498156  .00002243  00000+0  80524-3 0  9995
2 25985  45.0393  74.3861 0003250 336.9369  23.1333 14.36497641313549
ORBCOMM FM34            
1 25986U 99065G   25020.53448586  .00002524  00000+0  89911-3 0  9994
2 25986  45.0386  74.7181 0005215 299.9841  60.0489 14.36545423313709
ORBCOMM FM38            
1 33060U 08031A   25020.78001642  .00004744  00000+0  64503-3 0  9990
2 33060  48.4404 297.2042 0005498 124.3845 235.7591 14.80176223892901
ORBCOMM FM41            
1 33061U 08031B   25020.81914425  .00004702  00000+0  64520-3 0  9990
2 33061  48.4440 304.3125 0004621 109.2660 291.7174 14.79805496892401
ORBCOMM FM29            
1 33062U 08031C   25020.80870890  .00004846  00000+0  66328-3 0  9994
2 33062  48.4395 312.3209 0006354 107.4292 281.8375 14.79847444892311
ORBCOMM FM39            
1 33063U 08031D   25020.89849416  .00004364  00000+0  61874-3 0  9990
2 33063  48.4414 334.6184 0007158  80.5075 279.6648 14.78542864891994
